TK-2                    
1 52150U 22031A   22117.85919691  .00000199  00000+0  25869-4 0  9994
2 52150  97.7997 290.9170 0012855 161.2424 198.9270 14.90849381  4380
PUJIANG 2 (PJ-2)        
1 52151U 22031B   22117.78895891  .00001048  00000+0  11232-3 0  9994
2 52151  97.7861 290.8139 0012900 164.4758 195.6846 14.90699859  4376
CZ-6A R/B               
1 52152U 22031C   22117.72205631  .00000784  00000+0  71917-4 0  9999
2 52152  97.7857 291.0298 0027346 267.1880  92.6212 14.97544627  4381
2022-032A               
1 52153U 22032A   22117.75120919  .00000994  00000+0  10838-3 0  9996
2 52153  97.7942 167.5381 0012346 161.4038 198.7636 14.90129856  4263
2022-032C               
1 52155U 22032C   22117.78791586  .00001615  00000+0  16527-3 0  9997
2 52155  97.8000 167.6655 0016134 189.2392 170.8514 14.91845210  4273
2022-032D               
1 52156U 22032D   22117.92108885  .00002331  00000+0  23546-3 0  9993
2 52156  97.7873 167.7537 0016092 189.2688 170.8209 14.91922543  4302
OMNI-L1                 
1 52157U 22033A   22117.45043704  .00001296  00000+0  20304-3 0  9999
2 52157  97.9475 200.2866 0013688 168.8700 191.2814 14.74312762  3818
GNOMES-3                
1 52158U 22033B   22117.50864705  .00001509  00000+0  23221-3 0  9996
2 52158  97.9484 200.3688 0013023 178.8952 181.2288 14.74870873  3822
2022-033C               
1 52159U 22033C   22117.23329936  .00000148  00000+0  29480-4 0  9991
2 52159  97.9799 200.1769 0007792 189.4186 170.6878 14.74988083  3788
ALFACRUX                
1 52160U 22033D   22117.78970848  .00015118  00000+0  68970-3 0  9996
2 52160  97.3889 200.1281 0010017 199.8660 160.2187 15.20672226  3979
ARCSAT-1                
1 52161U 22033E   22117.46109692  .00006017  00000+0  27801-3 0  9999
2 52161  97.3875 199.7985 0009781 195.7925 164.3007 15.20513539  3926
LYNK TOWER 1            
1 52162U 22033F   22117.78143484  .00005824  00000+0  26534-3 0  9999
2 52162  97.3867 200.1264 0010719 179.3056 180.8197 15.20999716  3974
ION SCV-005             
1 52163U 22033G   22117.39018445  .00001075  00000+0  53277-4 0  9994
2 52163  97.6804 199.9493 0015051 170.7537 189.3977 15.19946411  3917
SPACEBEE-136            
1 52164U 22033H   22117.77653342  .00022974  00000+0  10182-2 0  9995
2 52164  97.3813 200.1150 0009908 187.6944 172.4142 15.21576712  3972
HAWK-4B                 
1 52165U 22033J   22117.77816611  .00011004  00000+0  49219-3 0  9992
2 52165  97.3867 200.1358 0010614 188.1556 171.9509 15.21420631  3972
SPACEBEE-138            
1 52166U 22033K   22117.18540570  .00016111  00000+0  71722-3 0  9994
2 52166  97.3837 199.5411 0011585 181.5323 178.5879 15.21483753  3885
HAWK-4A                 
1 52167U 22033L   22117.45186045  .00015259  00000+0  68324-3 0  9994
2 52167  97.3819 199.7998 0010409 187.8884 172.2190 15.21308925  3922
NUSAT-23 (ANNIE MAUNDER)
1 52168U 22033M   22117.86887598  .00007999  00000+0  36268-3 0  9995
2 52168  97.3846 200.2025 0010179 183.1689 284.0807 15.21053564  3987
MP42                    
1 52169U 22033N   22117.51104878  .00007601  00000+0  34031-3 0  9997
2 52169  97.3870 199.8840 0012391 184.6202 175.4922 15.21481366  3939
HAWK-4C                 
1 52170U 22033P   22117.77631731  .00039929  00000+0  17781-2 0  9990
2 52170  97.3854 200.1326 0012509 177.2856 182.8450 15.21266564  3975
NUSAT-25 (MARIA TELKES) 
1 52171U 22033Q   22117.73179086  .00008423  00000+0  34353-3 0  9997
2 52171  97.3816 200.1064 0010887 162.5704   3.5085 15.24630459  3962
NUSAT-27 (SALLY RIDE)   
1 52172U 22033R   22117.18539771  .00008597  00000+0  35918-3 0  9998
2 52172  97.3818 199.5862 0015215 169.3542 250.3346 15.23760100  3886
SHAKUNTALA              
1 52173U 22033S   22117.78655163  .00013957  00000+0  60946-3 0  9994
2 52173  97.3904 200.1885 0014120 177.9406 297.7446 15.22144469  3974
2022-033T               
1 52174U 22033T   22117.50032073  .00011222  00000+0  48979-3 0  9999
2 52174  97.3862 199.8908 0014030 173.9194 186.2215 15.22217381  3934
BDSAT                   
1 52175U 22033U   22117.49980774  .00012732  00000+0  55450-3 0  9997
2 52175  97.3888 199.9046 0014249 175.7187 184.4174 15.22256375  3931
SPACEBEE-130            
1 52176U 22033V   22117.45029742  .00019445  00000+0  86651-3 0  9998
2 52176  97.3828 199.7916 0008124 181.7672 178.3536 15.21439718  3927
SPACEBEE-139            
1 52177U 22033W   22117.45177883  .00018446  00000+0  82428-3 0  9997
2 52177  97.3835 199.7949 0010941 185.6705 174.4409 15.21330451  3922
NUSAT-24 (KALPANA CHAW*)
1 52178U 22033X   22116.21801398  .02349649  00000+0  91142-1 0  9991
2 52178  97.3837 198.5984 0010307 190.9388 253.8901 15.22651589  3729
SPACEBEE-129            
1 52179U 22033Y   22117.45284465  .00015756  00000+0  70790-3 0  9994
2 52179  97.3829 199.7897 0009517 188.4118 171.6960 15.21193215  3921
SPACEBEE-134            
1 52180U 22033Z   22117.45155024  .00015264  00000+0  68369-3 0  9997
2 52180  97.3837 199.7942 0009769 188.3789 171.7286 15.21302352  3921
SPACEBEE-131            
1 52181U 22033AA  22117.45230018  .00016563  00000+0  74237-3 0  9999
2 52181  97.3832 199.7916 0009577 189.4942 170.6114 15.21264267  3928
SPACEBEE-128            
1 52182U 22033AB  22117.18960982  .00016846  00000+0  75608-3 0  9997
2 52182  97.3841 199.5373 0009740 188.4675 171.6398 15.21212375  3881
SPACEBEE-133            
1 52183U 22033AC  22117.45203791  .00016585  00000+0  74290-3 0  9992
2 52183  97.3831 199.7922 0009621 189.2664 170.8396 15.21283167  3918
2022-033AD              
1 52184U 22033AD  22117.45532049  .00007839  00000+0  35843-3 0  9997
2 52184  97.3868 199.8010 0010186 183.2397 176.8774 15.20767684  3920
SPACEBEE-132            
1 52185U 22033AE  22117.77965170  .00022482  00000+0  10024-2 0  9992
2 52185  97.3836 200.1191 0009129 199.9765 160.1115 15.21383249  3950
SPACEBEE-137            
1 52186U 22033AF  22117.78003081  .00021411  00000+0  95594-3 0  9995
2 52186  97.3839 200.1180 0010031 187.1379 172.9716 15.21338534  3951
SPACEBEE-135            
1 52187U 22033AG  22117.77961382  .00023274  00000+0  10371-2 0  9990
2 52187  97.3845 200.1210 0009389 183.8691 176.2474 15.21394005  3950
PLANTSAT                
1 52188U 22033AH  22117.50416790  .00011481  00000+0  50064-3 0  9991
2 52188  97.3869 199.8885 0005759 197.3886 162.7154 15.22314922  3936
KSF2 C                  
1 52189U 22033AJ  22117.80761228  .00012951  00000+0  58191-3 0  9996
2 52189  97.3799 200.1407 0011002 177.3604 330.6416 15.21220255  3974
KSF2 D                  
1 52190U 22033AK  22117.80761244  .00013406  00000+0  60215-3 0  9992
2 52190  97.3795 200.1419 0010783 178.2156 329.8965 15.21226263  3976
SUCHAI-3                
1 52191U 22033AL  22117.78867671  .00013821  00000+0  63673-3 0  9993
2 52191  97.3970 200.1333 0012085 161.8063 198.3607 15.20335153  3979
SUCHAI-2                
1 52192U 22033AM  22117.77597680  .00012091  00000+0  53622-3 0  9994
2 52192  97.3772 200.1231 0010276 191.4537 168.6467 15.21693310  3979
2022-034A               
1 52195U 22034A   22117.74498116  .00204830  00000+0  33140-2 0  9995
2 52195  53.0016 222.0714 0015457  11.7788 348.3589 15.51488299  3905
GLOBAL-18               
1 52196U 22034B   22117.92147691  .00022629  00000+0  47931-3 0  9993
2 52196  53.0022 221.7579 0010664  16.7498 343.3854 15.44981582  3923
GLOBAL-20               
1 52197U 22034C   22117.58921558  .00022841  00000+0  47466-3 0  9997
2 52197  53.0017 223.2410 0012042   6.9542 353.1645 15.45521445  3872
GAOFEN-3 03             
1 52200U 22035A   22117.75904719  .00000035  00000+0  23878-4 0  9995
2 52200  98.4161 126.4117 0001638  89.5970 270.5396 14.42208220  3008
CZ-4C R/B               
1 52201U 22035B   22117.85812125  .00000861  00000+0  13785-3 0  9998
2 52201  98.3991 127.3497 0111497 345.4610  14.3395 14.70571060  3065
COSMOS 2554             
1 52202U 22036A   22116.87572342 -.00000073  00000+0  16018-5 0  9995
2 52202  67.1500 304.3546 0007033 263.5256  96.5027 13.96673364  2761
SL-4 R/B                
1 52203U 22036B   22117.84008449  .00139454  82477-5  70603-3 0  9993
2 52203  67.1358 292.9801 0433854  73.6385 291.1999 15.09781030  3067
CHINASAT 6D             
1 52255U 22038A   22117.62681538 -.00000349  00000+0  00000+0 0  9991
2 52255   0.0650 278.2488 0002374 333.8373 319.1491  1.00270500   280
CZ-3B R/B               
1 52256U 22038B   22115.31937238  .00075201  11029-5  48370-2 0  9999
2 52256  28.5109  16.9168 7214066 184.7846 159.6712  2.39680611   245
DAQI 1                  
1 52257U 22039A   22117.80962167  .00000425  00000+0  10298-3 0  9992
2 52257  98.1337  59.4371 0000811 209.9671 150.1506 14.57664469  1750
CZ-4C R/B               
1 52258U 22039B   22117.88921884  .00003352  00000+0  28961-3 0  9990
2 52258  98.1637  60.1934 0140005  22.8401 337.8946 14.90667519  1805
SZ-13 MODULE            
1 52260U 21092C   22117.54174710  .00027350  00000+0  27227-3 0  9990
2 52260  41.4806 166.5679 0007572 124.1540 236.0019 15.65040768  1417
STARLINK-3810           
1 52261U 22041A   22117.58335648 -.00876652  00000+0 -56304-2 0  9995
2 52261  53.2175 345.6856 0001225  75.5657 122.4186 15.77882935  1575
STARLINK-3761           
1 52262U 22041B   22117.58335648 -.00876693  00000+0 -56410-2 0  9999
2 52262  53.2175 345.6863 0001211  78.5671 118.5836 15.77842576  1573
STARLINK-3786           
1 52263U 22041C   22117.58335648 -.00876630  00000+0 -56359-2 0  9993
2 52263  53.2174 345.6862 0001216  77.3145 120.2705 15.77860804  1579
STARLINK-3795           
1 52264U 22041D   22117.58335648 -.00876921  00000+0 -56268-2 0  9996
2 52264  53.2175 345.6838 0001170  92.0321 106.3514 15.77905091  1574
STARLINK-3740           
1 52265U 22041E   22117.58335648 -.00876740  00000+0 -56199-2 0  9999
2 52265  53.2175 345.6836 0001203  76.3728 122.4102 15.77926895  1573
